TRANSPORTER-11 OBJECT A 
1 60468U 24149A   26068.74646182  .00010774  00000+0  36054-3 0  9993
2 60468  97.3780 149.0949 0003110 191.0010 169.1164 15.31141332 86830
STARLINK-34673          
1 65090U 25167N   26068.27822457  .00043663  00000+0  14778-2 0  9990
2 65090  53.1616  28.7970 0001128  99.5608 260.5521 15.30197018 33413
